NORAD_CAT_ID,OBJECT_NAME,OBJECT_TYPE,EPOCH,MEAN_MOTION,ECCENTRICITY,INCLINATION,RA_OF_ASC_NODE,ARG_OF_PERICENTER,MEAN_ANOMALY,BSTAR,MEAN_MOTION_DOT,MEAN_MOTION_DDOT,TLE_LINE0,TLE_LINE1,TLE_LINE2,SEMIMAJOR_AXIS,PERIOD,APOGEE,PERIGEE,DECAYED
51134.0,STARLINK-3183,PAYLOAD,2024-08-15 13:52:28,15.08855602,0.0001839,53.2184,332.9347,82.4801,277.64,0.0011061,0.00017367,0.0,0 STARLINK-3183,1 51134U 22005AG  24228.57811019  .00017367  00000-0  11061-2 0  9998,2 51134  53.2184 332.9347 0001839  82.4801 277.6400 15.08855602142669,6917.833,95.437,540.97,538.426,0.0
51134.0,STARLINK-3183,PAYLOAD,2024-08-16 10:32:29,15.08849064,0.0001237,53.2184,329.0755,73.2169,286.8959,0.0012474,0.00019625,0.0,0 STARLINK-3183,1 51134U 22005AG  24229.43923495  .00019625  00000-0  12474-2 0  9994,2 51134  53.2184 329.0755 0001237  73.2169 286.8959 15.08849064143900,6917.853,95.437,540.573,538.862,0.0
51134.0,STARLINK-3183,PAYLOAD,2024-08-17 05:37:07,15.08849031,0.0002064,53.2177,325.5073,124.1585,235.9603,0.0010165,0.00015931,0.0,0 STARLINK-3183,1 51134U 22005AG  24230.23411315  .00015931  00000-0  10165-2 0  9998,2 51134  53.2177 325.5073 0002064 124.1585 235.9603 15.08849031144022,6917.853,95.437,541.146,538.29,0.0
51134.0,STARLINK-3183,PAYLOAD,2024-08-18 11:49:27,15.08856399,0.0001288,53.2176,319.8572,84.5177,275.5962,0.00082911,0.00012938,0.0,0 STARLINK-3183,1 51134U 22005AG  24231.49267451  .00012938  00000-0  82911-3 0  9990,2 51134  53.2176 319.8572 0001288  84.5177 275.5962 15.08856399144218,6917.83,95.437,540.586,538.804,0.0
51134.0,STARLINK-3183,PAYLOAD,2024-08-18 15:00:13,15.08862497,0.000128,53.2177,319.2594,84.7007,275.4131,0.00084395,0.00013177,0.0,0 STARLINK-3183,1 51134U 22005AG  24231.62515129  .00013177  00000-0  84395-3 0  9997,2 51134  53.2177 319.2594 0001280  84.7007 275.4131 15.08862497143125,6917.812,95.436,540.562,538.791,0.0
51134.0,STARLINK-3183,PAYLOAD,2024-08-19 10:04:50,15.08837607,0.0002523,53.2167,315.6887,149.2851,210.8289,0.0001156,1.552e-05,0.0,0 STARLINK-3183,1 51134U 22005AG  24232.42003056  .00001552  00000-0  11560-3 0  9995,2 51134  53.2167 315.6887 0002523 149.2851 210.8289 15.08837607144352,6917.888,95.438,541.498,538.007,0.0
51134.0,STARLINK-3183,PAYLOAD,2024-08-20 05:09:28,15.08836316,6.21e-05,53.2168,312.1246,129.5703,230.5344,0.00017808,2.547e-05,0.0,0 STARLINK-3183,1 51134U 22005AG  24233.21491750  .00002547  00000-0  17808-3 0  9991,2 51134  53.2168 312.1246 0000621 129.5703 230.5344 15.08836316144478,6917.892,95.438,540.186,539.327,0.0
51134.0,STARLINK-3183,PAYLOAD,2024-08-20 11:31:01,15.08844098,0.00013,53.2161,310.9383,100.0006,260.1132,0.00021205,3.089e-05,0.0,0 STARLINK-3183,1 51134U 22005AG  24233.47987650  .00003089  00000-0  21205-3 0  9996,2 51134  53.2161 310.9383 0001300 100.0006 260.1132 15.08844098143406,6917.868,95.437,540.632,538.834,0.0
51134.0,STARLINK-3183,PAYLOAD,2024-08-21 05:00:15,15.08850689,0.0001438,53.2162,307.6652,115.3242,244.7899,0.00044047,6.731e-05,0.0,0 STARLINK-3183,1 51134U 22005AG  24234.20851376  .00006731  00000-0  44047-3 0  9999,2 51134  53.2162 307.6652 0001438 115.3242 244.7899 15.08850689144628,6917.848,95.437,540.708,538.718,0.0
51134.0,STARLINK-3183,PAYLOAD,2024-08-21 11:21:48,15.08838576,0.0001483,53.2158,306.4725,136.5252,223.5857,0.00011724,1.578e-05,0.0,0 STARLINK-3183,1 51134U 22005AG  24234.47347639  .00001578  00000-0  11724-3 0  9990,2 51134  53.2158 306.4725 0001483 136.5252 223.5857 15.08838576144661,6917.885,95.438,540.776,538.724,0.0
51134.0,STARLINK-3183,PAYLOAD,2024-08-21 16:07:57,15.08838855,0.0001355,53.2156,305.5802,136.4086,223.7013,0.00013859,1.918e-05,0.0,0 STARLINK-3183,1 51134U 22005AG  24234.67219684  .00001918  00000-0  13859-3 0  9999,2 51134  53.2156 305.5802 0001355 136.4086 223.7013 15.08838855143583,6917.884,95.438,540.686,538.812,0.0
